{
    "links": {
        "self": "http://www.neowsapp.com/rest/v1/neo/3799772?api_key=iIulBulltgU6a56xZRHN4H3l9WmuAYTsLGpBGhQ2"
    },
    "id": "3799772",
    "neo_reference_id": "3799772",
    "name": "(2018 DN3)",
    "designation": "2018 DN3",
    "nasa_jpl_url": "http://ssd.jpl.nasa.gov/sbdb.cgi?sstr=3799772",
    "absolute_magnitude_h": 26.985,
    "estimated_diameter": {
        "kilometers": {
            "estimated_diameter_min": 0.0106550374,
            "estimated_diameter_max": 0.0238253878
        },
        "meters": {
            "estimated_diameter_min": 10.6550373545,
            "estimated_diameter_max": 23.8253878275
        },
        "miles": {
            "estimated_diameter_min": 0.0066207312,
            "estimated_diameter_max": 0.0148044051
        },
        "feet": {
            "estimated_diameter_min": 34.9574727542,
            "estimated_diameter_max": 78.1672854001
        }
    },
    "is_potentially_hazardous_asteroid": false,
    "close_approach_data": [
        {
            "close_approach_date": "2017-08-16",
            "close_approach_date_full": "2017-Aug-16 00:17",
            "epoch_date_close_approach": 1502842620000,
            "relative_velocity": {
                "kilometers_per_second": "6.2265128763",
                "kilometers_per_hour": "22415.446354617",
                "miles_per_hour": "13928.0866529563"
            },
            "miss_distance": {
                "astronomical": "0.405774594",
                "lunar": "157.846317066",
                "kilometers": "60703014.96251478",
                "miles": "37719104.439592764"
            },
            "orbiting_body": "Earth"
        },
        {
            "close_approach_date": "2018-01-18",
            "close_approach_date_full": "2018-Jan-18 21:44",
            "epoch_date_close_approach": 1516311840000,
            "relative_velocity": {
                "kilometers_per_second": "7.888471714",
                "kilometers_per_hour": "28398.498170436",
                "miles_per_hour": "17645.722377069"
            },
            "miss_distance": {
                "astronomical": "0.0817199294",
                "lunar": "31.7890525366",
                "kilometers": "12225127.374790378",
                "miles": "7596341.9036400964"
            },
            "orbiting_body": "Earth"
        }
    ],
    "orbital_data": {
        "orbit_id": "1",
        "orbit_determination_date": "2018-03-05 06:22:19",
        "first_observation_date": "2018-02-17",
        "last_observation_date": "2018-02-18",
        "data_arc_in_days": 1,
        "observations_used": 102,
        "orbit_uncertainty": "9",
        "minimum_orbit_intersection": ".0611149",
        "jupiter_tisserand_invariant": "4.836",
        "epoch_osculation": "2458167.5",
        "eccentricity": ".3497163246601305",
        "semi_major_axis": "1.33591813241888",
        "inclination": "7.669193005679314",
        "ascending_node_longitude": "329.1164303550397",
        "orbital_period": "563.9858314847476",
        "perihelion_distance": ".8687257531025241",
        "perihelion_argument": "91.26640752743438",
        "aphelion_distance": "1.803110511735237",
        "perihelion_time": "2458089.903646026515",
        "mean_anomaly": "49.53083193050048",
        "mean_motion": ".638313907731095",
        "equinox": "J2000",
        "orbit_class": {
            "orbit_class_type": "APO",
            "orbit_class_description": "Near-Earth asteroid orbits which cross the Earth’s orbit similar to that of 1862 Apollo",
            "orbit_class_range": "a (semi-major axis) > 1.0 AU; q (perihelion) < 1.017 AU"
        }
    },
    "is_sentry_object": false
}